start=new Date('2022-12-26T00:00:00.000Z').valueOf();
sats=[{"SITE":"AFETR","DECAY_DATE":null,"PERIOD":"95.592","OBJECT_ID":"2021-012AN","ELEMENT_SET_NO":"999","EPOCH":"2022-12-25T20:50:33.548640","TLE_LINE2":"2 47656  53.0532 263.1613 0001557  84.0130 276.1036 15.06409018103940","NORAD_CAT_ID":"47656","REV_AT_EPOCH":"10394","CENTER_NAME":"EARTH","OBJECT_TYPE":"PAYLOAD","FILE":"3722315","SEMIMAJOR_AXIS":"6925.321","LAUNCH_DATE":"2021-02-16","ARG_OF_PERICENTER":"84.0130","OBJECT_NAME":"STARLINK-2040","TLE_LINE1":"1 47656U 21012AN  22359.86844385  .00003322  00000-0  24172-3 0  9990","TIME_SYSTEM":"UTC","APOAPSIS":"548.264","BSTAR":"0.00024172000000","MEAN_ANOMALY":"276.1036","EPHEMERIS_TYPE":"0","MEAN_MOTION_DOT":"0.00003322","INCLINATION":"53.0532","RCS_SIZE":"LARGE","PERIAPSIS":"546.108","CLASSIFICATION_TYPE":"U","MEAN_MOTION":"15.06409018","COUNTRY_CODE":"US","RA_OF_ASC_NODE":"263.1613","GP_ID":"221450390","MEAN_ELEMENT_THEORY":"SGP4","ECCENTRICITY":"0.00015570","MEAN_MOTION_DDOT":"0.0000000000000","REF_FRAME":"TEME"},{"MEAN_ANOMALY":"292.9825","EPHEMERIS_TYPE":"0","OBJECT_NAME":"STARLINK-2041","APOAPSIS":"548.148","BSTAR":"0.00025410000000","TIME_SYSTEM":"UTC","TLE_LINE1":"1 47657U 21012AP  22359.21050387  .00003506  00000-0  25410-3 0  9991","ARG_OF_PERICENTER":"67.1308","FILE":"3722051","SEMIMAJOR_AXIS":"6925.337","LAUNCH_DATE":"2021-02-16","CENTER_NAME":"EARTH","OBJECT_TYPE":"PAYLOAD","NORAD_CAT_ID":"47657","TLE_LINE2":"2 47657  53.0545 286.1109 0001365  67.1308 292.9825 15.06403628103567","REV_AT_EPOCH":"10356","ELEMENT_SET_NO":"999","DECAY_DATE":null,"SITE":"AFETR","OBJECT_ID":"2021-012AP","PERIOD":"95.592","EPOCH":"2022-12-25T05:03:07.534368","REF_FRAME":"TEME","MEAN_ELEMENT_THEORY":"SGP4","ECCENTRICITY":"0.00013650","MEAN_MOTION_DDOT":"0.0000000000000","GP_ID":"221419083","COUNTRY_CODE":"US","RA_OF_ASC_NODE":"286.1109","MEAN_MOTION":"15.06403628","CLASSIFICATION_TYPE":"U","MEAN_MOTION_DOT":"0.00003506","PERIAPSIS":"546.257","RCS_SIZE":"LARGE","INCLINATION":"53.0545"},{"EPHEMERIS_TYPE":"0","MEAN_ANOMALY":"287.3498","APOAPSIS":"548.381","TIME_SYSTEM":"UTC","BSTAR":"0.00029096000000","TLE_LINE1":"1 47658U 21012AQ  22359.80024837  .00004056  00000-0  29096-3 0  9993","OBJECT_NAME":"STARLINK-2042","ARG_OF_PERICENTER":"72.7682","SEMIMAJOR_AXIS":"6925.310","LAUNCH_DATE":"2021-02-16","FILE":"3722315","OBJECT_TYPE":"PAYLOAD","CENTER_NAME":"EARTH","REV_AT_EPOCH":"10367","NORAD_CAT_ID":"47658","TLE_LINE2":"2 47658  53.0553 283.4661 0001741  72.7682 287.3498 15.06412475103671","EPOCH":"2022-12-25T19:12:21.459168","ELEMENT_SET_NO":"999","PERIOD":"95.591","DECAY_DATE":null,"SITE":"AFETR","OBJECT_ID":"2021-012AQ","REF_FRAME":"TEME","MEAN_MOTION_DDOT":"0.0000000000000","ECCENTRICITY":"0.00017410","MEAN_ELEMENT_THEORY":"SGP4","GP_ID":"221450892","RA_OF_ASC_NODE":"283.4661","COUNTRY_CODE":"US","MEAN_MOTION":"15.06412475","CLASSIFICATION_TYPE":"U","PERIAPSIS":"545.970","RCS_SIZE":"LARGE","INCLINATION":"53.0553","MEAN_MOTION_DOT":"0.00004056"},{"CLASSIFICATION_TYPE":"U","RCS_SIZE":"LARGE","INCLINATION":"53.0538","PERIAPSIS":"546.216","MEAN_MOTION_DOT":"-0.00000902","MEAN_MOTION":"15.06393167","GP_ID":"221451642","RA_OF_ASC_NODE":"163.3441","COUNTRY_CODE":"US","REF_FRAME":"TEME","MEAN_MOTION_DDOT":"0.0000000000000","ECCENTRICITY":"0.00014700","MEAN_ELEMENT_THEORY":"SGP4","REV_AT_EPOCH":"10531","TLE_LINE2":"2 47659  53.0538 163.3441 0001470  62.0073 298.1065 15.06393167105311","NORAD_CAT_ID":"47659","EPOCH":"2022-12-25T19:49:33.931488","OBJECT_ID":"2021-012AR","DECAY_DATE":null,"SITE":"AFETR","PERIOD":"95.593","ELEMENT_SET_NO":"999","LAUNCH_DATE":"2021-02-16","SEMIMAJOR_AXIS":"6925.370","FILE":"3722315","OBJECT_TYPE":"PAYLOAD","CENTER_NAME":"EARTH","TLE_LINE1":"1 47659U 21012AR  22359.82608717 -.00000902  00000-0 -41662-4 0  9993","APOAPSIS":"548.253","BSTAR":"-0.00004166200000","TIME_SYSTEM":"UTC","OBJECT_NAME":"STARLINK-2043","ARG_OF_PERICENTER":"62.0073","EPHEMERIS_TYPE":"0","MEAN_ANOMALY":"298.1065"},{"CENTER_NAME":"EARTH","OBJECT_TYPE":"PAYLOAD","FILE":"3722315","SEMIMAJOR_AXIS":"6925.344","LAUNCH_DATE":"2021-02-16","ELEMENT_SET_NO":"999","SITE":"AFETR","DECAY_DATE":null,"PERIOD":"95.592","OBJECT_ID":"2021-012AS","EPOCH":"2022-12-25T17:06:24.766560","NORAD_CAT_ID":"47660","TLE_LINE2":"2 47660  53.0529 154.4741 0001604  67.3545 292.7614 15.06401557105434","REV_AT_EPOCH":"10543","MEAN_ANOMALY":"292.7614","EPHEMERIS_TYPE":"0","ARG_OF_PERICENTER":"67.3545","OBJECT_NAME":"STARLINK-2044","TIME_SYSTEM":"UTC","APOAPSIS":"548.320","BSTAR":"0.00007052500000","TLE_LINE1":"1 47660U 21012AS  22359.71278665  .00000769  00000-0  70525-4 0  9997","MEAN_MOTION":"15.06401557","MEAN_MOTION_DOT":"0.00000769","PERIAPSIS":"546.098","RCS_SIZE":"LARGE","INCLINATION":"53.0529","CLASSIFICATION_TYPE":"U","MEAN_ELEMENT_THEORY":"SGP4","ECCENTRICITY":"0.00016040","MEAN_MOTION_DDOT":"0.0000000000000","REF_FRAME":"TEME","COUNTRY_CODE":"US","RA_OF_ASC_NODE":"154.4741","GP_ID":"221449891"},{"EPHEMERIS_TYPE":"0","MEAN_ANOMALY":"257.4210","APOAPSIS":"548.223","TIME_SYSTEM":"UTC","BSTAR":"0.00013428000000","TLE_LINE1":"1 47661U 21012AT  22359.03542568  .00001719  00000-0  13428-3 0  9993","OBJECT_NAME":"STARLINK-2051","ARG_OF_PERICENTER":"102.6943","LAUNCH_DATE":"2021-02-16","SEMIMAJOR_AXIS":"6925.345","FILE":"3722051","OBJECT_TYPE":"PAYLOAD","CENTER_NAME":"EARTH","REV_AT_EPOCH":"10380","NORAD_CAT_ID":"47661","TLE_LINE2":"2 47661  53.0516 266.8989 0001462 102.6943 257.4210 15.06401070103809","EPOCH":"2022-12-25T00:51:00.778752","ELEMENT_SET_NO":"999","OBJECT_ID":"2021-012AT","DECAY_DATE":null,"SITE":"AFETR","PERIOD":"95.592","REF_FRAME":"TEME","ECCENTRICITY":"0.00014620","MEAN_MOTION_DDOT":"0.0000000000000","MEAN_ELEMENT_THEORY":"SGP4","GP_ID":"221418583","RA_OF_ASC_NODE":"266.8989","COUNTRY_CODE":"US","MEAN_MOTION":"15.06401070","CLASSIFICATION_TYPE":"U","PERIAPSIS":"546.198","RCS_SIZE":"LARGE","INCLINATION":"53.0516","MEAN_MOTION_DOT":"0.00001719"},{"EPOCH":"2022-12-25T17:54:03.015072","ELEMENT_SET_NO":"999","DECAY_DATE":null,"PERIOD":"95.593","SITE":"AFETR","OBJECT_ID":"2021-012AU","REV_AT_EPOCH":"10393","NORAD_CAT_ID":"47662","TLE_LINE2":"2 47662  53.0542 263.7095 0001737  68.0020 292.1154 15.06393947103939","OBJECT_TYPE":"PAYLOAD","CENTER_NAME":"EARTH","SEMIMAJOR_AXIS":"6925.367","LAUNCH_DATE":"2021-02-16","FILE":"3722315","ARG_OF_PERICENTER":"68.0020","TIME_SYSTEM":"UTC","APOAPSIS":"548.435","BSTAR":"0.00005271900000","TLE_LINE1":"1 47662U 21012AU  22359.74586823  .00000504  00000-0  52719-4 0  9992","OBJECT_NAME":"STARLINK-2052","EPHEMERIS_TYPE":"0","MEAN_ANOMALY":"292.1154","PERIAPSIS":"546.029","RCS_SIZE":"LARGE","INCLINATION":"53.0542","MEAN_MOTION_DOT":"0.00000504","CLASSIFICATION_TYPE":"U","MEAN_MOTION":"15.06393947","RA_OF_ASC_NODE":"263.7095","COUNTRY_CODE":"US","GP_ID":"221451392","ECCENTRICITY":"0.00017370","MEAN_MOTION_DDOT":"0.0000000000000","MEAN_ELEMENT_THEORY":"SGP4","REF_FRAME":"TEME"},{"ECCENTRICITY":"0.00014770","MEAN_MOTION_DDOT":"0.0000000000000","MEAN_ELEMENT_THEORY":"SGP4","REF_FRAME":"TEME","RA_OF_ASC_NODE":"183.7302","COUNTRY_CODE":"US","GP_ID":"221451143","MEAN_MOTION":"15.06404358","PERIAPSIS":"546.177","INCLINATION":"53.0550","RCS_SIZE":"LARGE","MEAN_MOTION_DOT":"0.00001248","CLASSIFICATION_TYPE":"U","EPHEMERIS_TYPE":"0","MEAN_ANOMALY":"289.6064","ARG_OF_PERICENTER":"70.5085","TIME_SYSTEM":"UTC","APOAPSIS":"548.223","BSTAR":"0.00010267000000","TLE_LINE1":"1 47663U 21012AV  22359.80951226  .00001248  00000-0  10267-3 0  9990","OBJECT_NAME":"STARLINK-2053","OBJECT_TYPE":"PAYLOAD","CENTER_NAME":"EARTH","SEMIMAJOR_AXIS":"6925.335","LAUNCH_DATE":"2021-02-16","FILE":"3722315","EPOCH":"2022-12-25T19:25:41.859264","ELEMENT_SET_NO":"999","DECAY_DATE":null,"SITE":"AFETR","PERIOD":"95.592","OBJECT_ID":"2021-012AV","REV_AT_EPOCH":"10505","NORAD_CAT_ID":"47663","TLE_LINE2":"2 47663  53.0550 183.7302 0001477  70.5085 289.6064 15.06404358105056"},{"REF_FRAME":"TEME","MEAN_MOTION_DDOT":"0.0000000000000","ECCENTRICITY":"0.00015640","MEAN_ELEMENT_THEORY":"SGP4","GP_ID":"221450391","RA_OF_ASC_NODE":"263.7039","COUNTRY_CODE":"US","MEAN_MOTION":"15.06410103","CLASSIFICATION_TYPE":"U","INCLINATION":"53.0525","RCS_SIZE":"LARGE","PERIAPSIS":"546.099","MEAN_MOTION_DOT":"0.00008172","EPHEMERIS_TYPE":"0","MEAN_ANOMALY":"272.5378","TLE_LINE1":"1 47664U 21012AW  22359.74682032  .00008172  00000-0  56672-3 0  9993","APOAPSIS":"548.266","TIME_SYSTEM":"UTC","BSTAR":"0.00056672000000","OBJECT_NAME":"STARLINK-2054","ARG_OF_PERICENTER":"87.5790","SEMIMAJOR_AXIS":"6925.318","LAUNCH_DATE":"2021-02-16","FILE":"3722315","OBJECT_TYPE":"PAYLOAD","CENTER_NAME":"EARTH","REV_AT_EPOCH":"10393","TLE_LINE2":"2 47664  53.0525 263.7039 0001564  87.5790 272.5378 15.06410103103932","NORAD_CAT_ID":"47664","EPOCH":"2022-12-25T17:55:25.275648","OBJECT_ID":"2021-012AW","DECAY_DATE":null,"SITE":"AFETR","PERIOD":"95.591","ELEMENT_SET_NO":"999"},{"EPHEMERIS_TYPE":"0","MEAN_ANOMALY":"275.3152","ARG_OF_PERICENTER":"84.8024","TIME_SYSTEM":"UTC","APOAPSIS":"548.351","BSTAR":"-0.00004433200000","TLE_LINE1":"1 47665U 21012AX  22359.72700862 -.00000942  00000-0 -44332-4 0  9994","OBJECT_NAME":"STARLINK-2056","OBJECT_TYPE":"PAYLOAD","CENTER_NAME":"EARTH","SEMIMAJOR_AXIS":"6925.349","LAUNCH_DATE":"2021-02-16","FILE":"3722315","EPOCH":"2022-12-25T17:26:53.544768","ELEMENT_SET_NO":"999","SITE":"AFETR","DECAY_DATE":null,"PERIOD":"95.592","OBJECT_ID":"2021-012AX","REV_AT_EPOCH":"10399","NORAD_CAT_ID":"47665","TLE_LINE2":"2 47665  53.0548 258.8507 0001641  84.8024 275.3152 15.06399781103994","MEAN_MOTION_DDOT":"0.0000000000000","ECCENTRICITY":"0.00016410","MEAN_ELEMENT_THEORY":"SGP4","REF_FRAME":"TEME","RA_OF_ASC_NODE":"258.8507","COUNTRY_CODE":"US","GP_ID":"221450641","MEAN_MOTION":"15.06399781","PERIAPSIS":"546.078","RCS_SIZE":"LARGE","INCLINATION":"53.0548","MEAN_MOTION_DOT":"-0.00000942","CLASSIFICATION_TYPE":"U"}];
